ORBCOMM FM115           
1 41186U 15081H   26002.84703032  .00001606  00000+0  34458-3 0  9991
2 41186  46.9967 169.6640 0001486 254.9221 105.1502 14.62968289537003
ORBCOMM FM108           
1 41187U 15081J   26003.08473029  .00001546  00000+0  36504-3 0  9996
2 41187  47.0041 242.6492 0002261 160.0242 200.0733 14.58612840535977
ORBCOMM FM117           
1 41188U 15081K   26002.84470848  .00001522  00000+0  35978-3 0  9994
2 41188  47.0004 242.4715 0002636 165.7153 194.3808 14.58636371535986
ORBCOMM FM116           
1 41189U 15081L   26003.09910632  .00002108  00000+0  48432-3 0  9993
2 41189  47.0035 331.0421 0002051 343.2959  16.7859 14.58636897534837
