<?xml version="1.0" encoding="UTF-8"?>
<ndm xmlns:xsi="http://www.w3.org/2001/XMLSchema-instance" xsi:noNamespaceSchemaLocation="https://sanaregistry.org/r/ndmxml_unqualified/ndmxml-2.0.0-master-2.0.xsd">
<omm id="CCSDS_OMM_VERS" version="2.0">
<header><CREATION_DATE/><ORIGINATOR/></header><body><segment><metadata><OBJECT_NAME>ORBCOMM FM115</OBJECT_NAME><OBJECT_ID>2015-081H</OBJECT_ID><CENTER_NAME>EARTH</CENTER_NAME><REF_FRAME>TEME</REF_FRAME><TIME_SYSTEM>UTC</TIME_SYSTEM><MEAN_ELEMENT_THEORY>SGP4</MEAN_ELEMENT_THEORY></metadata><data><meanElements><EPOCH>2026-01-02T20:19:43.419648</EPOCH><MEAN_MOTION>14.62968289</MEAN_MOTION><ECCENTRICITY>.0001486</ECCENTRICITY><INCLINATION>46.9967</INCLINATION><RA_OF_ASC_NODE>169.6640</RA_OF_ASC_NODE><ARG_OF_PERICENTER>254.9221</ARG_OF_PERICENTER><MEAN_ANOMALY>105.1502</MEAN_ANOMALY></meanElements><tleParameters><EPHEMERIS_TYPE>0</EPHEMERIS_TYPE><CLASSIFICATION_TYPE>U</CLASSIFICATION_TYPE><NORAD_CAT_ID>41186</NORAD_CAT_ID><ELEMENT_SET_NO>999</ELEMENT_SET_NO><REV_AT_EPOCH>53700</REV_AT_EPOCH><BSTAR>.34458E-3</BSTAR><MEAN_MOTION_DOT>.1606E-4</MEAN_MOTION_DOT><MEAN_MOTION_DDOT>0</MEAN_MOTION_DDOT></tleParameters></data></segment></body></omm>
<omm id="CCSDS_OMM_VERS" version="2.0">
<header><CREATION_DATE/><ORIGINATOR/></header><body><segment><metadata><OBJECT_NAME>ORBCOMM FM108</OBJECT_NAME><OBJECT_ID>2015-081J</OBJECT_ID><CENTER_NAME>EARTH</CENTER_NAME><REF_FRAME>TEME</REF_FRAME><TIME_SYSTEM>UTC</TIME_SYSTEM><MEAN_ELEMENT_THEORY>SGP4</MEAN_ELEMENT_THEORY></metadata><data><meanElements><EPOCH>2026-01-03T02:02:00.697056</EPOCH><MEAN_MOTION>14.58612840</MEAN_MOTION><ECCENTRICITY>.0002261</ECCENTRICITY><INCLINATION>47.0041</INCLINATION><RA_OF_ASC_NODE>242.6492</RA_OF_ASC_NODE><ARG_OF_PERICENTER>160.0242</ARG_OF_PERICENTER><MEAN_ANOMALY>200.0733</MEAN_ANOMALY></meanElements><tleParameters><EPHEMERIS_TYPE>0</EPHEMERIS_TYPE><CLASSIFICATION_TYPE>U</CLASSIFICATION_TYPE><NORAD_CAT_ID>41187</NORAD_CAT_ID><ELEMENT_SET_NO>999</ELEMENT_SET_NO><REV_AT_EPOCH>53597</REV_AT_EPOCH><BSTAR>.36504E-3</BSTAR><MEAN_MOTION_DOT>.1546E-4</MEAN_MOTION_DOT><MEAN_MOTION_DDOT>0</MEAN_MOTION_DDOT></tleParameters></data></segment></body></omm>
<omm id="CCSDS_OMM_VERS" version="2.0">
<header><CREATION_DATE/><ORIGINATOR/></header><body><segment><metadata><OBJECT_NAME>ORBCOMM FM117</OBJECT_NAME><OBJECT_ID>2015-081K</OBJECT_ID><CENTER_NAME>EARTH</CENTER_NAME><REF_FRAME>TEME</REF_FRAME><TIME_SYSTEM>UTC</TIME_SYSTEM><MEAN_ELEMENT_THEORY>SGP4</MEAN_ELEMENT_THEORY></metadata><data><meanElements><EPOCH>2026-01-02T20:16:22.812672</EPOCH><MEAN_MOTION>14.58636371</MEAN_MOTION><ECCENTRICITY>.0002636</ECCENTRICITY><INCLINATION>47.0004</INCLINATION><RA_OF_ASC_NODE>242.4715</RA_OF_ASC_NODE><ARG_OF_PERICENTER>165.7153</ARG_OF_PERICENTER><MEAN_ANOMALY>194.3808</MEAN_ANOMALY></meanElements><tleParameters><EPHEMERIS_TYPE>0</EPHEMERIS_TYPE><CLASSIFICATION_TYPE>U</CLASSIFICATION_TYPE><NORAD_CAT_ID>41188</NORAD_CAT_ID><ELEMENT_SET_NO>999</ELEMENT_SET_NO><REV_AT_EPOCH>53598</REV_AT_EPOCH><BSTAR>.35978E-3</BSTAR><MEAN_MOTION_DOT>.1522E-4</MEAN_MOTION_DOT><MEAN_MOTION_DDOT>0</MEAN_MOTION_DDOT></tleParameters></data></segment></body></omm>
<omm id="CCSDS_OMM_VERS" version="2.0">
<header><CREATION_DATE/><ORIGINATOR/></header><body><segment><metadata><OBJECT_NAME>ORBCOMM FM116</OBJECT_NAME><OBJECT_ID>2015-081L</OBJECT_ID><CENTER_NAME>EARTH</CENTER_NAME><REF_FRAME>TEME</REF_FRAME><TIME_SYSTEM>UTC</TIME_SYSTEM><MEAN_ELEMENT_THEORY>SGP4</MEAN_ELEMENT_THEORY></metadata><data><meanElements><EPOCH>2026-01-03T02:22:42.786048</EPOCH><MEAN_MOTION>14.58636897</MEAN_MOTION><ECCENTRICITY>.0002051</ECCENTRICITY><INCLINATION>47.0035</INCLINATION><RA_OF_ASC_NODE>331.0421</RA_OF_ASC_NODE><ARG_OF_PERICENTER>343.2959</ARG_OF_PERICENTER><MEAN_ANOMALY>16.7859</MEAN_ANOMALY></meanElements><tleParameters><EPHEMERIS_TYPE>0</EPHEMERIS_TYPE><CLASSIFICATION_TYPE>U</CLASSIFICATION_TYPE><NORAD_CAT_ID>41189</NORAD_CAT_ID><ELEMENT_SET_NO>999</ELEMENT_SET_NO><REV_AT_EPOCH>53483</REV_AT_EPOCH><BSTAR>.48432E-3</BSTAR><MEAN_MOTION_DOT>.2108E-4</MEAN_MOTION_DOT><MEAN_MOTION_DDOT>0</MEAN_MOTION_DDOT></tleParameters></data></segment></body></omm>
</ndm>
